{
  "type": "FeatureCollection",
  "features": [
    {
      "type": "Feature",
      "properties": {
        "norad_id": 40069,
        "name": "METEOR-M 2",
        "group": "weather",
        "lat": 45.21140462898219,
        "lon": -45.80332881946608,
        "alt_km": 820.2359956949294,
        "timestamp": "2025-12-11T05:00:25.954578+00:00",
        "meta_object_name": "METEOR-M 2",
        "meta_object_id": "2014-037A",
        "meta_epoch": "2025-12-10T22:02:03.100416",
        "meta_mean_motion": 14.21385613,
        "meta_eccentricity": 0.00049386,
        "meta_inclination": 98.4904,
        "meta_ra_of_asc_node": 322.5721,
        "meta_arg_of_pericenter": 215.7984,
        "meta_mean_anomaly": 144.2864,
        "meta_ephemeris_type": 0,
        "meta_classification_type": "U",
        "meta_norad_cat_id": 40069,
        "meta_element_set_no": 999,
        "meta_rev_at_epoch": 59257,
        "meta_bstar": 0.0001711598,
        "meta_mean_motion_dot": 3.32e-06,
        "meta_mean_motion_ddot": 0,
        "tle_line1": "1 40069U 14037A   25344.91809144  .00000332  00000+0  17116-3 0  9994",
        "tle_line2": "2 40069  98.4904 322.5721 0004938 215.7984 144.2864 14.21385613592578"
      },
      "geometry": {
        "type": "Point",
        "coordinates": [
          -45.80332881946608,
          45.21140462898219
        ]
      }
    },
    {
      "type": "Feature",
      "properties": {
        "norad_id": 40267,
        "name": "HIMAWARI-8",
        "group": "weather",
        "lat": 0.010512131341065826,
        "lon": -64.06816826732357,
        "alt_km": 35781.33284600513,
        "timestamp": "2025-12-11T05:00:25.954589+00:00",
        "meta_object_name": "HIMAWARI-8",
        "meta_object_id": "2014-060A",
        "meta_epoch": "2025-12-10T21:03:32.879232",
        "meta_mean_motion": 1.00270352,
        "meta_eccentricity": 0.00012357,
        "meta_inclination": 0.0344,
        "meta_ra_of_asc_node": 201.0454,
        "meta_arg_of_pericenter": 100.319,
        "meta_mean_anomaly": 235.0267,
        "meta_ephemeris_type": 0,
        "meta_classification_type": "U",
        "meta_norad_cat_id": 40267,
        "meta_element_set_no": 999,
        "meta_rev_at_epoch": 4087,
        "meta_bstar": 0,
        "meta_mean_motion_dot": -2.71e-06,
        "meta_mean_motion_ddot": 0,
        "tle_line1": "1 40267U 14060A   25344.87746388 -.00000271  00000+0  00000+0 0  9998",
        "tle_line2": "2 40267   0.0344 201.0454 0001235 100.3190 235.0267  1.00270352 40877"
      },
      "geometry": {
        "type": "Point",
        "coordinates": [
          -64.06816826732357,
          0.010512131341065826
        ]
      }
    },
    {
      "type": "Feature",
      "properties": {
        "norad_id": 40367,
        "name": "FENGYUN 2G",
        "group": "weather",
        "lat": 0.006111193900697468,
        "lon": -105.15637947455271,
        "alt_km": 35775.35405624536,
        "timestamp": "2025-12-11T05:00:25.954601+00:00",
        "meta_object_name": "FENGYUN 2G",
        "meta_object_id": "2014-090A",
        "meta_epoch": "2025-12-10T20:22:55.693344",
        "meta_mean_motion": 1.00264635,
        "meta_eccentricity": 0.00031271,
        "meta_inclination": 5.1637,
        "meta_ra_of_asc_node": 75.1179,
        "meta_arg_of_pericenter": 194.7733,
        "meta_mean_anomaly": 215.2369,
        "meta_ephemeris_type": 0,
        "meta_classification_type": "U",
        "meta_norad_cat_id": 40367,
        "meta_element_set_no": 999,
        "meta_rev_at_epoch": 4011,
        "meta_bstar": 0,
        "meta_mean_motion_dot": -2.96e-06,
        "meta_mean_motion_ddot": 0,
        "tle_line1": "1 40367U 14090A   25344.84925571 -.00000296  00000+0  00000+0 0  9999",
        "tle_line2": "2 40367   5.1637  75.1179 0003127 194.7733 215.2369  1.00264635 40112"
      },
      "geometry": {
        "type": "Point",
        "coordinates": [
          -105.15637947455271,
          0.006111193900697468
        ]
      }
    },
    {
      "type": "Feature",
      "properties": {
        "norad_id": 40732,
        "name": "METEOSAT-11 (MSG-4)",
        "group": "weather",
        "lat": 2.728800509652622,
        "lon": 164.59372476583135,
        "alt_km": 35783.669025677154,
        "timestamp": "2025-12-11T05:00:25.954613+00:00",
        "meta_object_name": "METEOSAT-11 (MSG-4)",
        "meta_object_id": "2015-034A",
        "meta_epoch": "2025-12-10T20:26:06.463680",
        "meta_mean_motion": 1.00266905,
        "meta_eccentricity": 9.494e-05,
        "meta_inclination": 2.7306,
        "meta_ra_of_asc_node": 72.0062,
        "meta_arg_of_pericenter": 124.0282,
        "meta_mean_anomaly": 199.6353,
        "meta_ephemeris_type": 0,
        "meta_classification_type": "U",
        "meta_norad_cat_id": 40732,
        "meta_element_set_no": 999,
        "meta_rev_at_epoch": 532,
        "meta_bstar": 0,
        "meta_mean_motion_dot": 6.6e-07,
        "meta_mean_motion_ddot": 0,
        "tle_line1": "1 40732U 15034A   25344.85146370  .00000066  00000+0  00000+0 0  9991",
        "tle_line2": "2 40732   2.7306  72.0062 0000949 124.0282 199.6353  1.00266905  5329"
      },
      "geometry": {
        "type": "Point",
        "coordinates": [
          164.59372476583135,
          2.728800509652622
        ]
      }
    },
    {
      "type": "Feature",
      "properties": {
        "norad_id": 41105,
        "name": "ELEKTRO-L 2",
        "group": "weather",
        "lat": 5.772662284278649,
        "lon": 140.62690004830827,
        "alt_km": 35795.97798309764,
        "timestamp": "2025-12-11T05:00:25.954624+00:00",
        "meta_object_name": "ELEKTRO-L 2",
        "meta_object_id": "2015-074A",
        "meta_epoch": "2025-12-09T01:31:10.511904",
        "meta_mean_motion": 1.00271905,
        "meta_eccentricity": 0.00038363,
        "meta_inclination": 6.2161,
        "meta_ra_of_asc_node": 72.8685,
        "meta_arg_of_pericenter": 198.9202,
        "meta_mean_anomaly": 174.5582,
        "meta_ephemeris_type": 0,
        "meta_classification_type": "U",
        "meta_norad_cat_id": 41105,
        "meta_element_set_no": 999,
        "meta_rev_at_epoch": 3660,
        "meta_bstar": 0,
        "meta_mean_motion_dot": -1.16e-06,
        "meta_mean_motion_ddot": 0,
        "tle_line1": "1 41105U 15074A   25343.06331611 -.00000116  00000+0  00000+0 0  9993",
        "tle_line2": "2 41105   6.2161  72.8685 0003836 198.9202 174.5582  1.00271905 36608"
      },
      "geometry": {
        "type": "Point",
        "coordinates": [
          140.62690004830827,
          5.772662284278649
        ]
      }
    },
    {
      "type": "Feature",
      "properties": {
        "norad_id": 41752,
        "name": "INSAT-3DR",
        "group": "weather",
        "lat": 0.033942012565662705,
        "lon": -130.8314275686749,
        "alt_km": 35740.41277442059,
        "timestamp": "2025-12-11T05:00:25.954636+00:00",
        "meta_object_name": "INSAT-3DR",
        "meta_object_id": "2016-054A",
        "meta_epoch": "2025-12-10T20:38:04.926336",
        "meta_mean_motion": 1.0027059,
        "meta_eccentricity": 0.00144495,
        "meta_inclination": 0.0873,
        "meta_ra_of_asc_node": 86.5694,
        "meta_arg_of_pericenter": 183.9486,
        "meta_mean_anomaly": 192.8337,
        "meta_ephemeris_type": 0,
        "meta_classification_type": "U",
        "meta_norad_cat_id": 41752,
        "meta_element_set_no": 999,
        "meta_rev_at_epoch": 3393,
        "meta_bstar": 0,
        "meta_mean_motion_dot": -7.2e-07,
        "meta_mean_motion_ddot": 0,
        "tle_line1": "1 41752U 16054A   25344.85977924 -.00000072  00000+0  00000+0 0  9992",
        "tle_line2": "2 41752   0.0873  86.5694 0014449 183.9486 192.8337  1.00270590 33933"
      },
      "geometry": {
        "type": "Point",
        "coordinates": [
          -130.8314275686749,
          0.033942012565662705
        ]
      }
    },
    {
      "type": "Feature",
      "properties": {
        "norad_id": 41836,
        "name": "HIMAWARI-9",
        "group": "weather",
        "lat": -0.023875625574849485,
        "lon": -63.93787045128158,
        "alt_km": 35781.396540935464,
        "timestamp": "2025-12-11T05:00:25.954648+00:00",
        "meta_object_name": "HIMAWARI-9",
        "meta_object_id": "2016-064A",
        "meta_epoch": "2025-12-10T21:03:32.879232",
        "meta_mean_motion": 1.00272945,
        "meta_eccentricity": 0.00011781,
        "meta_inclination": 0.0294,
        "meta_ra_of_asc_node": 85.2644,
        "meta_arg_of_pericenter": 182.8349,
        "meta_mean_anomaly": 268.4113,
        "meta_ephemeris_type": 0,
        "meta_classification_type": "U",
        "meta_norad_cat_id": 41836,
        "meta_element_set_no": 999,
        "meta_rev_at_epoch": 3332,
        "meta_bstar": 0,
        "meta_mean_motion_dot": -2.69e-06,
        "meta_mean_motion_ddot": 0,
        "tle_line1": "1 41836U 16064A   25344.87746388 -.00000269  00000+0  00000+0 0  9994",
        "tle_line2": "2 41836   0.0294  85.2644 0001178 182.8349 268.4113  1.00272945 33326"
      },
      "geometry": {
        "type": "Point",
        "coordinates": [
          -63.93787045128158,
          -0.023875625574849485
        ]
      }
    }
  ]
}